start=new Date('2021-10-15T00:00:00.000Z').valueOf();
sats=[{"ECCENTRICITY":"0.00034700","RCS_SIZE":"LARGE","TLE_LINE1":"1 49138U 21082J   21287.91667824 -.00047483  00000-0 -39759-3 0  9995","GP_ID":"187191356","MEAN_MOTION":"15.69787386","OBJECT_ID":"2021-082J","EPHEMERIS_TYPE":"0","EPOCH":"2021-10-14T22:00:00.999936","APOAPSIS":"361.845","RA_OF_ASC_NODE":"40.3321","TLE_LINE2":"2 49138  70.0013  40.3321 0003470 290.8229 144.0987 15.69787386  3700","PERIOD":"91.732","INCLINATION":"70.0013","ELEMENT_SET_NO":"999","MEAN_MOTION_DDOT":"0.0000000000000","TIME_SYSTEM":"UTC","OBJECT_NAME":"STARLINK-3058","MEAN_ANOMALY":"144.0987","MEAN_ELEMENT_THEORY":"SGP4","CENTER_NAME":"EARTH","BSTAR":"-0.00039759000000","FILE":"3163138","SITE":"AFWTR","CLASSIFICATION_TYPE":"U","REF_FRAME":"TEME","DECAY_DATE":null,"ARG_OF_PERICENTER":"290.8229","LAUNCH_DATE":"2021-09-14","COUNTRY_CODE":"US","NORAD_CAT_ID":"49138","SEMIMAJOR_AXIS":"6737.642","OBJECT_TYPE":"PAYLOAD","MEAN_MOTION_DOT":"-0.00047483","REV_AT_EPOCH":"370","PERIAPSIS":"357.169"},{"MEAN_ANOMALY":"143.9186","OBJECT_NAME":"STARLINK-3057","TIME_SYSTEM":"UTC","SEMIMAJOR_AXIS":"6737.716","NORAD_CAT_ID":"49139","LAUNCH_DATE":"2021-09-14","COUNTRY_CODE":"US","DECAY_DATE":null,"ARG_OF_PERICENTER":"288.8319","CLASSIFICATION_TYPE":"U","REF_FRAME":"TEME","BSTAR":"-0.00028574000000","FILE":"3163138","SITE":"AFWTR","MEAN_ELEMENT_THEORY":"SGP4","CENTER_NAME":"EARTH","OBJECT_TYPE":"PAYLOAD","PERIAPSIS":"356.958","REV_AT_EPOCH":"370","MEAN_MOTION_DOT":"-0.00034206","RCS_SIZE":"LARGE","TLE_LINE1":"1 49139U 21082K   21287.91667824 -.00034206  00000-0 -28574-3 0  9998","ECCENTRICITY":"0.00038930","APOAPSIS":"362.204","EPOCH":"2021-10-14T22:00:00.999936","EPHEMERIS_TYPE":"0","OBJECT_ID":"2021-082K","MEAN_MOTION":"15.69761713","GP_ID":"187191033","PERIOD":"91.734","INCLINATION":"70.0021","RA_OF_ASC_NODE":"40.3341","TLE_LINE2":"2 49139  70.0021  40.3341 0003893 288.8319 143.9186 15.69761713  3703","MEAN_MOTION_DDOT":"0.0000000000000","ELEMENT_SET_NO":"999"},{"EPHEMERIS_TYPE":"0","MEAN_MOTION":"15.69734197","GP_ID":"187190910","OBJECT_ID":"2021-082L","APOAPSIS":"362.023","EPOCH":"2021-10-14T22:00:00.999936","TLE_LINE1":"1 49140U 21082L   21287.91667824 -.00036446  00000-0 -30503-3 0  9993","RCS_SIZE":"LARGE","ECCENTRICITY":"0.00035080","ELEMENT_SET_NO":"999","MEAN_MOTION_DDOT":"0.0000000000000","TLE_LINE2":"2 49140  70.0008  40.3262 0003508 289.8934 149.3402 15.69734197  3739","RA_OF_ASC_NODE":"40.3262","PERIOD":"91.735","INCLINATION":"70.0008","CLASSIFICATION_TYPE":"U","REF_FRAME":"TEME","MEAN_ELEMENT_THEORY":"SGP4","CENTER_NAME":"EARTH","BSTAR":"-0.00030503000000","FILE":"3163138","SITE":"AFWTR","SEMIMAJOR_AXIS":"6737.795","ARG_OF_PERICENTER":"289.8934","DECAY_DATE":null,"NORAD_CAT_ID":"49140","LAUNCH_DATE":"2021-09-14","COUNTRY_CODE":"US","TIME_SYSTEM":"UTC","MEAN_ANOMALY":"149.3402","OBJECT_NAME":"STARLINK-3118","REV_AT_EPOCH":"373","MEAN_MOTION_DOT":"-0.00036446","PERIAPSIS":"357.296","OBJECT_TYPE":"PAYLOAD"},{"ELEMENT_SET_NO":"999","MEAN_MOTION_DDOT":"0.0000000000000","RA_OF_ASC_NODE":"40.3277","TLE_LINE2":"2 49141  70.0011  40.3277 0003760 284.7410 152.2665 15.69749347  3730","PERIOD":"91.734","INCLINATION":"70.0011","EPHEMERIS_TYPE":"0","GP_ID":"187191141","MEAN_MOTION":"15.69749347","OBJECT_ID":"2021-082M","APOAPSIS":"362.150","EPOCH":"2021-10-14T22:00:00.999936","RCS_SIZE":"LARGE","TLE_LINE1":"1 49141U 21082M   21287.91667824 -.00036612  00000-0 -30622-3 0  9991","ECCENTRICITY":"0.00037600","REV_AT_EPOCH":"373","MEAN_MOTION_DOT":"-0.00036612","PERIAPSIS":"357.083","OBJECT_TYPE":"PAYLOAD","CLASSIFICATION_TYPE":"U","REF_FRAME":"TEME","MEAN_ELEMENT_THEORY":"SGP4","CENTER_NAME":"EARTH","FILE":"3163138","SITE":"AFWTR","BSTAR":"-0.00030622000000","SEMIMAJOR_AXIS":"6737.751","DECAY_DATE":null,"ARG_OF_PERICENTER":"284.7410","LAUNCH_DATE":"2021-09-14","COUNTRY_CODE":"US","NORAD_CAT_ID":"49141","TIME_SYSTEM":"UTC","MEAN_ANOMALY":"152.2665","OBJECT_NAME":"STARLINK-3093"},{"REV_AT_EPOCH":"370","MEAN_MOTION_DOT":"-0.00109598","PERIAPSIS":"356.965","OBJECT_TYPE":"PAYLOAD","CLASSIFICATION_TYPE":"U","REF_FRAME":"TEME","MEAN_ELEMENT_THEORY":"SGP4","CENTER_NAME":"EARTH","SITE":"AFWTR","FILE":"3163138","BSTAR":"-0.00092590000000","SEMIMAJOR_AXIS":"6737.576","DECAY_DATE":null,"ARG_OF_PERICENTER":"291.1250","LAUNCH_DATE":"2021-09-14","COUNTRY_CODE":"US","NORAD_CAT_ID":"49142","TIME_SYSTEM":"UTC","MEAN_ANOMALY":"150.1985","OBJECT_NAME":"STARLINK-3042","ELEMENT_SET_NO":"999","MEAN_MOTION_DDOT":"0.0000000000000","RA_OF_ASC_NODE":"40.3246","TLE_LINE2":"2 49142  70.0012  40.3246 0003675 291.1250 150.1985 15.69810564  3706","INCLINATION":"70.0012","PERIOD":"91.731","EPHEMERIS_TYPE":"0","GP_ID":"187191448","MEAN_MOTION":"15.69810564","OBJECT_ID":"2021-082N","APOAPSIS":"361.917","EPOCH":"2021-10-14T22:00:00.999936","TLE_LINE1":"1 49142U 21082N   21287.91667824 -.00109598  00000-0 -92590-3 0  9998","RCS_SIZE":"LARGE","ECCENTRICITY":"0.00036750"},{"OBJECT_TYPE":"PAYLOAD","PERIAPSIS":"357.119","REV_AT_EPOCH":"373","MEAN_MOTION_DOT":"-0.00035244","MEAN_ANOMALY":"155.5028","OBJECT_NAME":"STARLINK-3109","TIME_SYSTEM":"UTC","SEMIMAJOR_AXIS":"6737.667","DECAY_DATE":null,"ARG_OF_PERICENTER":"287.9693","NORAD_CAT_ID":"49143","LAUNCH_DATE":"2021-09-14","COUNTRY_CODE":"US","CLASSIFICATION_TYPE":"U","REF_FRAME":"TEME","MEAN_ELEMENT_THEORY":"SGP4","CENTER_NAME":"EARTH","FILE":"3163138","SITE":"AFWTR","BSTAR":"-0.00029432000000","PERIOD":"91.733","INCLINATION":"70.0008","RA_OF_ASC_NODE":"40.3225","TLE_LINE2":"2 49143  70.0008  40.3225 0003581 287.9693 155.5028 15.69778726  3732","ELEMENT_SET_NO":"999","MEAN_MOTION_DDOT":"0.0000000000000","TLE_LINE1":"1 49143U 21082P   21287.91667824 -.00035244  00000-0 -29432-3 0  9990","RCS_SIZE":"LARGE","ECCENTRICITY":"0.00035810","APOAPSIS":"361.945","EPOCH":"2021-10-14T22:00:00.999936","EPHEMERIS_TYPE":"0","MEAN_MOTION":"15.69778726","GP_ID":"187190696","OBJECT_ID":"2021-082P"},{"MEAN_ANOMALY":"159.9747","OBJECT_NAME":"STARLINK-3100","TIME_SYSTEM":"UTC","SEMIMAJOR_AXIS":"6737.795","LAUNCH_DATE":"2021-09-14","COUNTRY_CODE":"US","NORAD_CAT_ID":"49144","ARG_OF_PERICENTER":"287.7756","DECAY_DATE":null,"CLASSIFICATION_TYPE":"U","REF_FRAME":"TEME","SITE":"AFWTR","FILE":"3163138","BSTAR":"-0.00028748000000","MEAN_ELEMENT_THEORY":"SGP4","CENTER_NAME":"EARTH","OBJECT_TYPE":"PAYLOAD","PERIAPSIS":"357.073","REV_AT_EPOCH":"373","MEAN_MOTION_DOT":"-0.00034372","RCS_SIZE":"LARGE","TLE_LINE1":"1 49144U 21082Q   21287.91667824 -.00034372  00000-0 -28748-3 0  9991","ECCENTRICITY":"0.00038400","APOAPSIS":"362.248","EPOCH":"2021-10-14T22:00:00.999936","EPHEMERIS_TYPE":"0","OBJECT_ID":"2021-082Q","MEAN_MOTION":"15.69733872","GP_ID":"187191249","INCLINATION":"70.0013","PERIOD":"91.735","RA_OF_ASC_NODE":"40.3170","TLE_LINE2":"2 49144  70.0013  40.3170 0003840 287.7756 159.9747 15.69733872  3733","MEAN_MOTION_DDOT":"0.0000000000000","ELEMENT_SET_NO":"999"},{"TIME_SYSTEM":"UTC","OBJECT_NAME":"STARLINK-3119","MEAN_ANOMALY":"162.0062","FILE":"3163138","BSTAR":"-0.00043021000000","SITE":"AFWTR","MEAN_ELEMENT_THEORY":"SGP4","CENTER_NAME":"EARTH","CLASSIFICATION_TYPE":"U","REF_FRAME":"TEME","COUNTRY_CODE":"US","LAUNCH_DATE":"2021-09-14","NORAD_CAT_ID":"49145","ARG_OF_PERICENTER":"289.9415","DECAY_DATE":null,"SEMIMAJOR_AXIS":"6737.714","OBJECT_TYPE":"PAYLOAD","MEAN_MOTION_DOT":"-0.00051284","REV_AT_EPOCH":"370","PERIAPSIS":"357.329","ECCENTRICITY":"0.00033390","RCS_SIZE":"LARGE","TLE_LINE1":"1 49145U 21082R   21287.91667824 -.00051284  00000-0 -43021-3 0  9994","OBJECT_ID":"2021-082R","GP_ID":"187190803","MEAN_MOTION":"15.69762454","EPHEMERIS_TYPE":"0","EPOCH":"2021-10-14T22:00:00.999936","APOAPSIS":"361.828","TLE_LINE2":"2 49145  69.9996  40.3122 0003339 289.9415 162.0062 15.69762454  3707","RA_OF_ASC_NODE":"40.3122","PERIOD":"91.734","INCLINATION":"69.9996","MEAN_MOTION_DDOT":"0.0000000000000","ELEMENT_SET_NO":"999"},{"MEAN_ANOMALY":"162.0445","OBJECT_NAME":"STARLINK-3116","TIME_SYSTEM":"UTC","SEMIMAJOR_AXIS":"6737.673","ARG_OF_PERICENTER":"287.7705","DECAY_DATE":null,"LAUNCH_DATE":"2021-09-14","NORAD_CAT_ID":"49146","COUNTRY_CODE":"US","REF_FRAME":"TEME","CLASSIFICATION_TYPE":"U","CENTER_NAME":"EARTH","MEAN_ELEMENT_THEORY":"SGP4","FILE":"3163138","BSTAR":"-0.00029529000000","SITE":"AFWTR","OBJECT_TYPE":"PAYLOAD","PERIAPSIS":"356.973","REV_AT_EPOCH":"373","MEAN_MOTION_DOT":"-0.00035358","RCS_SIZE":"LARGE","TLE_LINE1":"1 49146U 21082S   21287.91667824 -.00035358  00000-0 -29529-3 0  9996","ECCENTRICITY":"0.00038070","APOAPSIS":"362.103","EPOCH":"2021-10-14T22:00:00.999936","EPHEMERIS_TYPE":"0","GP_ID":"187191357","MEAN_MOTION":"15.69776718","OBJECT_ID":"2021-082S","PERIOD":"91.733","INCLINATION":"70.0002","TLE_LINE2":"2 49146  70.0002  40.3144 0003807 287.7705 162.0445 15.69776718  3737","RA_OF_ASC_NODE":"40.3144","ELEMENT_SET_NO":"999","MEAN_MOTION_DDOT":"0.0000000000000"},{"OBJECT_TYPE":"PAYLOAD","MEAN_MOTION_DOT":"-0.00035723","REV_AT_EPOCH":"370","PERIAPSIS":"357.214","TIME_SYSTEM":"UTC","OBJECT_NAME":"STARLINK-3071","MEAN_ANOMALY":"156.4358","MEAN_ELEMENT_THEORY":"SGP4","CENTER_NAME":"EARTH","FILE":"3163138","SITE":"AFWTR","BSTAR":"-0.00029849000000","CLASSIFICATION_TYPE":"U","REF_FRAME":"TEME","ARG_OF_PERICENTER":"289.1065","DECAY_DATE":null,"LAUNCH_DATE":"2021-09-14","COUNTRY_CODE":"US","NORAD_CAT_ID":"49147","SEMIMAJOR_AXIS":"6737.694","RA_OF_ASC_NODE":"40.3210","TLE_LINE2":"2 49147  70.0018  40.3210 0003481 289.1065 156.4358 15.69769179  3702","PERIOD":"91.733","INCLINATION":"70.0018","ELEMENT_SET_NO":"999","MEAN_MOTION_DDOT":"0.0000000000000","ECCENTRICITY":"0.00034810","RCS_SIZE":"LARGE","TLE_LINE1":"1 49147U 21082T   21287.91667824 -.00035723  00000-0 -29849-3 0  9998","GP_ID":"187191034","MEAN_MOTION":"15.69769179","OBJECT_ID":"2021-082T","EPHEMERIS_TYPE":"0","EPOCH":"2021-10-14T22:00:00.999936","APOAPSIS":"361.905"}];
